NORAD_CAT_ID,OBJECT_NAME,OBJECT_TYPE,EPOCH,MEAN_MOTION,ECCENTRICITY,INCLINATION,RA_OF_ASC_NODE,ARG_OF_PERICENTER,MEAN_ANOMALY,BSTAR,MEAN_MOTION_DOT,MEAN_MOTION_DDOT,TLE_LINE0,TLE_LINE1,TLE_LINE2,SEMIMAJOR_AXIS,PERIOD,APOGEE,PERIGEE,DECAYED
51998.0,STARLINK-3618,PAYLOAD,2024-07-05 10:35:14,15.08845684,0.0001332,53.2162,247.6109,90.4532,269.6613,8.2531e-05,1.026e-05,0.0,0 STARLINK-3618,1 51998U 22025AU  24187.44114132  .00001026  00000-0  82531-4 0  9997,2 51998  53.2162 247.6109 0001332  90.4532 269.6613 15.08845684128490,6917.863,95.437,540.649,538.807,0.0
51998.0,STARLINK-3618,PAYLOAD,2024-07-06 10:26:02,15.08843427,0.000124,53.2166,243.1506,87.2481,272.8653,-5.7781e-05,-1.207e-05,0.0,0 STARLINK-3618,1 51998U 22025AU  24188.43474645 -.00001207  00000-0 -57781-4 0  9997,2 51998  53.2166 243.1506 0001240  87.2481 272.8653 15.08843427130150,6917.87,95.437,540.593,538.877,0.0
51998.0,STARLINK-3618,PAYLOAD,2024-07-06 13:36:48,15.08838434,0.0001319,53.2168,242.5549,93.3012,266.8131,-9.0861e-06,-4.32e-06,0.0,0 STARLINK-3618,1 51998U 22025AU  24188.56722708 -.00000432  00000-0 -90861-5 0  9993,2 51998  53.2168 242.5549 0001319  93.3012 266.8131 15.08838434128666,6917.885,95.438,540.663,538.838,0.0
51998.0,STARLINK-3618,PAYLOAD,2024-07-07 10:16:48,15.0884191,0.0001342,53.2164,238.6895,88.4126,271.702,2.488e-05,1.08e-06,0.0,0 STARLINK-3618,1 51998U 22025AU  24189.42834449  .00000108  00000-0  24880-4 0  9990,2 51998  53.2164 238.6895 0001342  88.4126 271.7020 15.08841910128798,6917.875,95.437,540.668,538.811,0.0
51998.0,STARLINK-3618,PAYLOAD,2024-07-08 10:07:36,15.08840331,0.0001306,53.2164,234.2299,87.3923,272.7219,8.9197e-05,1.132e-05,0.0,0 STARLINK-3618,1 51998U 22025AU  24190.42194446  .00001132  00000-0  89197-4 0  9998,2 51998  53.2164 234.2299 0001306  87.3923 272.7219 15.08840331130454,6917.879,95.438,540.648,538.841,0.0
51998.0,STARLINK-3618,PAYLOAD,2024-07-08 19:39:54,15.08839529,0.000129,53.2161,232.4461,86.0958,274.0182,7.1008e-05,8.42e-06,0.0,0 STARLINK-3618,1 51998U 22025AU  24190.81938606  .00000842  00000-0  71008-4 0  9994,2 51998  53.2161 232.4461 0001290  86.0958 274.0182 15.08839529129008,6917.882,95.438,540.639,538.854,0.0
51998.0,STARLINK-3618,PAYLOAD,2024-07-09 03:36:51,15.08836169,0.0001519,53.2178,230.9625,102.8874,257.2287,1.2089e-05,-9.6e-07,0.0,0 STARLINK-3618,1 51998U 22025AU  24191.15059087 -.00000096  00000-0  12089-4 0  9995,2 51998  53.2178 230.9625 0001519 102.8874 257.2287 15.08836169130568,6917.892,95.438,540.808,538.706,0.0
51998.0,STARLINK-3618,PAYLOAD,2024-07-09 09:58:23,15.08836152,0.0001485,53.2174,229.7727,100.1033,260.0127,6.7423e-06,-1.81e-06,0.0,0 STARLINK-3618,1 51998U 22025AU  24191.41555128 -.00000181  00000-0  67423-5 0  9999,2 51998  53.2174 229.7727 0001485 100.1033 260.0127 15.08836152129096,6917.892,95.438,540.784,538.73,0.0
51998.0,STARLINK-3618,PAYLOAD,2024-07-10 09:49:10,15.08838765,0.0001416,53.217,225.3106,92.3937,267.7217,1.5091e-05,-4.8e-07,0.0,0 STARLINK-3618,1 51998U 22025AU  24192.40915114 -.00000048  00000-0  15091-4 0  9999,2 51998  53.2170 225.3106 0001416  92.3937 267.7217 15.08838765130755,6917.884,95.438,540.729,538.77,0.0
51998.0,STARLINK-3618,PAYLOAD,2024-07-11 11:15:20,15.08838851,0.0001372,53.2158,220.5514,82.1712,277.9436,6.5389e-05,7.53e-06,0.0,0 STARLINK-3618,1 51998U 22025AU  24193.46899171  .00000753  00000-0  65389-4 0  9997,2 51998  53.2158 220.5514 0001372  82.1712 277.9436 15.08838851129402,6917.884,95.438,540.698,538.8,0.0
51998.0,STARLINK-3618,PAYLOAD,2024-07-12 07:55:21,15.08840958,0.0001322,53.2153,216.6848,87.3765,272.7379,5.484e-05,5.85e-06,0.0,0 STARLINK-3618,1 51998U 22025AU  24194.33011131  .00000585  00000-0  54840-4 0  9999,2 51998  53.2153 216.6848 0001322  87.3765 272.7379 15.08840958129537,6917.877,95.437,540.657,538.828,0.0
51998.0,STARLINK-3618,PAYLOAD,2024-07-12 19:03:03,15.08842074,0.0001324,53.2154,214.6034,86.9023,273.2121,7.3464e-05,8.82e-06,0.0,0 STARLINK-3618,1 51998U 22025AU  24194.79379002  .00000882  00000-0  73464-4 0  9996,2 51998  53.2154 214.6034 0001324  86.9023 273.2121 15.08842074131116,6917.874,95.437,540.655,538.823,0.0
51998.0,STARLINK-3618,PAYLOAD,2024-07-13 07:46:08,15.0884329,0.0001346,53.2157,212.2242,88.9538,271.1609,5.8366e-05,6.41e-06,0.0,0 STARLINK-3618,1 51998U 22025AU  24195.32370923  .00000641  00000-0  58366-4 0  9996,2 51998  53.2157 212.2242 0001346  88.9538 271.1609 15.08843290129689,6917.87,95.437,540.666,538.804,0.0
51998.0,STARLINK-3618,PAYLOAD,2024-07-14 04:26:09,15.08840383,0.000136,53.2157,208.3584,89.6796,270.4352,3.184e-05,2.19e-06,0.0,0 STARLINK-3618,1 51998U 22025AU  24196.18483178  .00000219  00000-0  31840-4 0  9997,2 51998  53.2157 208.3584 0001360  89.6796 270.4352 15.08840383131325,6917.879,95.438,540.685,538.803,0.0
51998.0,STARLINK-3618,PAYLOAD,2024-07-14 07:36:55,15.08840305,0.0001358,53.2157,207.7636,89.8941,270.2207,2.9872e-05,1.88e-06,0.0,0 STARLINK-3618,1 51998U 22025AU  24196.31731175  .00000188  00000-0  29872-4 0  9992,2 51998  53.2157 207.7636 0001358  89.8941 270.2207 15.08840305129831,6917.879,95.438,540.684,538.805,0.0
51998.0,STARLINK-3618,PAYLOAD,2024-07-15 07:27:42,15.08841697,0.0001346,53.2158,203.3034,89.3959,270.7188,3.2714e-05,2.33e-06,0.0,0 STARLINK-3618,1 51998U 22025AU  24197.31091071  .00000233  00000-0  32714-4 0  9997,2 51998  53.2158 203.3034 0001346  89.3959 270.7188 15.08841697131490,6917.875,95.437,540.671,538.809,0.0
51998.0,STARLINK-3618,PAYLOAD,2024-07-15 17:00:01,15.08838568,0.0001321,53.2156,201.5193,88.2823,271.8321,2.671e-05,1.37e-06,0.0,0 STARLINK-3618,1 51998U 22025AU  24197.70835319  .00000137  00000-0  26710-4 0  9993,2 51998  53.2156 201.5193 0001321  88.2823 271.8321 15.08838568130049,6917.885,95.438,540.664,538.836,0.0
51998.0,STARLINK-3618,PAYLOAD,2024-07-16 04:07:44,15.08831848,0.0001357,53.216,199.4383,90.2689,269.8458,-6.2001e-06,-3.87e-06,0.0,0 STARLINK-3618,1 51998U 22025AU  24198.17203936 -.00000387  00000-0 -62001-5 0  9992,2 51998  53.2160 199.4383 0001357  90.2689 269.8458 15.08831848131629,6917.905,95.438,540.709,538.832,0.0
51998.0,STARLINK-3618,PAYLOAD,2024-07-16 08:53:53,15.08833622,0.0001374,53.2162,198.5463,89.8316,270.2833,5.9721e-06,-1.93e-06,0.0,0 STARLINK-3618,1 51998U 22025AU  24198.37075858 -.00000193  00000-0  59721-5 0  9993,2 51998  53.2162 198.5463 0001374  89.8316 270.2833 15.08833622130141,6917.9,95.438,540.715,538.814,0.0
51998.0,STARLINK-3618,PAYLOAD,2024-07-17 08:44:40,15.08838846,0.0001388,53.2165,194.0858,89.921,270.1942,4.3664e-05,4.07e-06,0.0,0 STARLINK-3618,1 51998U 22025AU  24199.36435743  .00000407  00000-0  43664-4 0  9991,2 51998  53.2165 194.0858 0001388  89.9210 270.1942 15.08838846131809,6917.884,95.438,540.709,538.789,0.0
51998.0,STARLINK-3618,PAYLOAD,2024-07-18 08:35:27,15.08838962,0.0001418,53.2162,189.6253,89.1846,270.9309,0.00011155,1.488e-05,0.0,0 STARLINK-3618,1 51998U 22025AU  24200.35795891  .00001488  00000-0  11155-3 0  9995,2 51998  53.2162 189.6253 0001418  89.1846 270.9309 15.08838962130449,6917.884,95.438,540.73,538.768,0.0
51998.0,STARLINK-3618,PAYLOAD,2024-07-18 16:32:23,15.0883903,0.0001475,53.2163,188.139,84.6203,275.4957,8.4019e-05,1.049e-05,0.0,0 STARLINK-3618,1 51998U 22025AU  24200.68916083  .00001049  00000-0  84019-4 0  9992,2 51998  53.2163 188.1390 0001475  84.6203 275.4957 15.08839030132006,6917.883,95.438,540.769,538.728,0.0
51998.0,STARLINK-3618,PAYLOAD,2024-07-19 08:26:14,15.08844872,0.0001518,53.2168,185.1629,90.0328,270.0838,9.2672e-05,1.187e-05,0.0,0 STARLINK-3618,1 51998U 22025AU  24201.35155711  .00001187  00000-0  92672-4 0  9997,2 51998  53.2168 185.1629 0001518  90.0328 270.0838 15.08844872130591,6917.865,95.437,540.781,538.68,0.0
51998.0,STARLINK-3618,PAYLOAD,2024-07-19 16:23:10,15.08843004,0.0001527,53.2168,183.6766,89.0613,271.0554,7.0633e-05,8.36e-06,0.0,0 STARLINK-3618,1 51998U 22025AU  24201.68275762  .00000836  00000-0  70633-4 0  9995,2 51998  53.2168 183.6766 0001527  89.0613 271.0554 15.08843004130649,6917.871,95.437,540.793,538.68,0.0
51998.0,STARLINK-3618,PAYLOAD,2024-07-20 05:06:15,15.08846375,0.0001409,53.2164,181.2952,105.6767,254.438,4.5969e-05,4.44e-06,0.0,0 STARLINK-3618,1 51998U 22025AU  24202.21267429  .00000444  00000-0  45969-4 0  9995,2 51998  53.2164 181.2952 0001409 105.6767 254.4380 15.08846375132233,6917.861,95.437,540.701,538.751,0.0
51998.0,STARLINK-3618,PAYLOAD,2024-07-20 16:13:57,15.08839595,0.0001362,53.2157,179.2147,100.74,259.3746,3.5939e-05,2.84e-06,0.0,0 STARLINK-3618,1 51998U 22025AU  24202.67635846  .00000284  00000-0  35939-4 0  9995,2 51998  53.2157 179.2147 0001362 100.7400 259.3746 15.08839595132300,6917.882,95.438,540.689,538.804,0.0
51998.0,STARLINK-3618,PAYLOAD,2024-07-21 04:57:02,15.08819462,0.0001291,53.216,176.8362,106.9813,253.1321,0.0002495,3.683e-05,0.0,0 STARLINK-3618,1 51998U 22025AU  24203.20628251  .00003683  00000-0  24950-3 0  9993,2 51998  53.2160 176.8362 0001291 106.9813 253.1321 15.08819462132383,6917.943,95.439,540.701,538.915,0.0
51998.0,STARLINK-3618,PAYLOAD,2024-07-21 08:07:49,15.08808512,0.0001469,53.2161,176.2413,108.1942,251.921,0.00042808,6.526e-05,0.0,0 STARLINK-3618,1 51998U 22025AU  24203.33876500  .00006526  00000-0  42808-3 0  9990,2 51998  53.2161 176.2413 0001469 108.1942 251.9210 15.08808512130890,6917.977,95.44,540.858,538.825,0.0
51998.0,STARLINK-3618,PAYLOAD,2024-07-22 04:47:49,15.08839342,0.0001478,53.2174,172.3748,103.2842,256.8315,-4.328e-05,-9.77e-06,0.0,0 STARLINK-3618,1 51998U 22025AU  24204.19988253 -.00000977  00000-0 -43280-4 0  9996,2 51998  53.2174 172.3748 0001478 103.2842 256.8315 15.08839342132535,6917.882,95.438,540.77,538.725,0.0
51998.0,STARLINK-3618,PAYLOAD,2024-07-22 22:17:04,15.08839374,0.0001373,53.2172,169.104,101.6294,258.4852,9.0085e-05,1.146e-05,0.0,0 STARLINK-3618,1 51998U 22025AU  24204.92851899  .00001146  00000-0  90085-4 0  9994,2 51998  53.2172 169.1040 0001373 101.6294 258.4852 15.08839374131133,6917.882,95.438,540.697,538.797,0.0
